COSMOS 2532 (RODNIK-S *)
1 43753U 18097C   26190.00007012  .00000100  00000+0  65274-3 0  9992
2 43753  82.5116 208.5848 0018306  14.2062 345.9529 12.42910683344986
MINXSS-2                
1 43758U 18099A   26189.94567513  .00029061  00000+0  54673-3 0  9995
2 43758  97.4523 266.8901 0008230 179.7775 180.3480 15.48481031417491
SIRION PATHFINDER-2     
1 43759U 18099B   26189.65263305  .00002925  00000+0  16123-3 0  9994
2 43759  97.4246 238.2007 0007811 215.4457 144.6257 15.14744359415876
AISTECHSAT 2            
1 43768U 18099L   26189.67896883  .00004124  00000+0  22014-3 0  9998
2 43768  97.4284 237.2437 0003982 204.1446 155.9601 15.15671871415532
FOX-1CLIFF (AO-95)      
1 43770U 18099N   26189.63795887  .00008250  00000+0  31216-3 0  9997
2 43770  97.4375 249.8099 0006947 267.7864  92.2580 15.27180525416491
RANGE-A                 
1 43773U 18099R   26189.66538547  .00003440  00000+0  19522-3 0  9993
2 43773  97.3957 231.6168 0008514 272.0230  88.0027 15.13573370415748
SNUSAT-2                
1 43782U 18099AA  26189.63474716  .00006062  00000+0  26685-3 0  9998
2 43782  97.4050 242.6916 0009570 211.6868 148.3793 15.22174056416294
SNUGLITE                
1 43784U 18099AC  26189.63177855  .00008449  00000+0  31514-3 0  9992
2 43784  97.3858 243.7051 0002964 177.9939 182.1313 15.27661051416594
ITASAT                  
1 43786U 18099AE  26189.95524999  .00004481  00000+0  21506-3 0  9996
2 43786  97.4019 241.0343 0010734 275.6257  84.3754 15.19331973416213
EAGLET-I                
1 43790U 18099AJ  26189.94349618  .00002773  00000+0  16014-3 0  9993
2 43790  97.4222 239.0362 0009426 269.4461  90.5690 15.13104892415620
ESEO                    
1 43792U 18099AL  26189.66593289  .00001112  00000+0  83966-4 0  9996
2 43792  97.3951 226.1340 0010570 258.9671 101.0367 15.04305369415037
THEA                    
1 43796U 18099AQ  26189.64396125  .00013178  00000+0  38047-3 0  9992
2 43796  97.4431 259.5543 0007396 196.7146 163.3855 15.35777136415984
ASTROCAST 0.1           
1 43798U 18099AS  26189.75535981  .00031250  00000+0  53623-3 0  9999
2 43798  97.4369 268.9463 0005634 145.5224 214.6394 15.51109059417771
JY1SAT (JO-97)          
1 43803U 18099AX  26189.68738342  .00012315  00000+0  37202-3 0  9990
2 43803  97.4119 252.6045 0006239 178.6652 181.4609 15.34370872416921
SUOMI-100               
1 43804U 18099AY  26189.67677466  .00008772  00000+0  31439-3 0  9997
2 43804  97.4176 249.9955 0009895 194.6945 165.4009 15.28925903416704
CENTAURI-1              
1 43809U 18099BD  26189.71703995  .00003144  00000+0  16413-3 0  9997
2 43809  97.4210 240.9755 0012528 249.9678 110.0206 15.16583047415767
GLOBAL-2                
1 43812U 18099BG  26189.89501734  .00001944  00000+0  12742-3 0  9994
2 43812  97.3552 225.5056 0007680  84.2045 276.0059 15.08804460415184
SEAHAWK-1               
1 43820U 18099BQ  26189.68683012  .00006404  00000+0  27376-3 0  9995
2 43820  97.3949 241.8476 0007304 223.0542 137.0124 15.23168577415805
SAUDISAT 5A             
1 43831U 18102A   26189.96981303  .00003719  00000+0  13749-3 0  9992
2 43831  97.3057 251.1323 0010898  63.2152 297.0202 15.28278802419003
SAUDISAT 5B             
1 43833U 18102C   26189.98507796  .00003307  00000+0  12162-3 0  9997
2 43833  97.3166 254.2565 0011665  64.6779 295.5668 15.28523640419126
ISAT                    
1 43879U 18111D   26189.80527156  .00090132  00000+0  75347-3 0  9996
2 43879  97.5855 126.7570 0006524 150.1171 210.0464 15.69714973414551
UWE-4                   
1 43880U 18111E   26189.75752430  .00026748  00000+0  52100-3 0  9991
2 43880  97.5839 119.1632 0005108 221.6996 138.3865 15.47518784414113
D-STAR ONE (SPARROW)    
1 43881U 18111F   26189.81750316  .00202288  00000+0  95472-3 0  9994
2 43881  97.6084 132.8354 0006929 142.1755 218.0002 15.82489471414783
JILIN-1 09              
1 43943U 19005B   26189.96153962  .00002928  00000+0  13635-3 0  9996
2 43943  97.4741 284.7410 0002860  50.0596 310.0890 15.20706222412458
JILIN-1 10              
1 43946U 19005E   26189.96468462  .00003830  00000+0  15193-3 0  9997
2 43946  97.4789 288.7730 0007945 191.0109 169.0957 15.25961280412635
EGYPTSAT-A (MISRSAT-A)  
1 44047U 19008A   26189.95872250  .00000435  00000+0  76535-4 0  9992
2 44047  98.0181 254.4276 0001668  96.3624 263.7773 14.72332745396448
EMISAT                  
1 44078U 19018A   26189.97662972 -.00000082  00000+0 -11044-4 0  9991
2 44078  98.4634 248.6560 0019026 149.1162 211.1151 14.43647060383205
JILIN-1 GAOFEN 3A       
1 44312U 19032C   26189.59078380  .00006873  00000+0  22016-3 0  9992
2 44312  44.9745 239.0993 0004698  56.3811 303.7522 15.33104625391123
WT 1B                   
1 44316U 19032G   26189.78218644  .00008548  00000+0  32068-3 0  9995
2 44316  44.9728 303.0287 0009092 358.3132   1.7719 15.27637302390386
