OBJECT_NAME,OBJECT_ID,EPOCH,MEAN_MOTION,ECCENTRICITY,INCLINATION,RA_OF_ASC_NODE,ARG_OF_PERICENTER,MEAN_ANOMALY,EPHEMERIS_TYPE,CLASSIFICATION_TYPE,NORAD_CAT_ID,ELEMENT_SET_NO,REV_AT_EPOCH,BSTAR,MEAN_MOTION_DOT,MEAN_MOTION_DDOT
COSMOS 2532 (RODNIK-S 18),2018-097C,2026-07-09T00:00:06.058368,12.42910683,.00183065,82.5116,208.5848,14.2062,345.9529,0,U,43753,999,34498,.65273757E-3,.1E-5,0
MINXSS-2,2018-099A,2026-07-08T22:41:46.331232,15.48481031,.00082304,97.4523,266.8901,179.7775,180.3480,0,U,43758,999,41749,.54673007E-3,.29061E-3,0
SIRION PATHFINDER-2,2018-099B,2026-07-08T15:39:47.495520,15.14744359,.00078114,97.4246,238.2007,215.4457,144.6257,0,U,43759,999,41587,.16123389E-3,.2925E-4,0
AISTECHSAT 2,2018-099L,2026-07-08T16:17:42.906912,15.15671871,.00039823,97.4284,237.2437,204.1446,155.9601,0,U,43768,999,41553,.22013951E-3,.4124E-4,0
FOX-1CLIFF (AO-95),2018-099N,2026-07-08T15:18:39.646368,15.27180525,.00069474,97.4375,249.8099,267.7864,92.2580,0,U,43770,999,41649,.31216308E-3,.825E-4,0
RANGE-A,2018-099R,2026-07-08T15:58:09.304608,15.13573370,.00085141,97.3957,231.6168,272.0230,88.0027,0,U,43773,999,41574,.19521592E-3,.344E-4,0
SNUSAT-2,2018-099AA,2026-07-08T15:14:02.154624,15.22174056,.00095704,97.4050,242.6916,211.6868,148.3793,0,U,43782,999,41629,.26684995E-3,.6062E-4,0
SNUGLITE,2018-099AC,2026-07-08T15:09:45.666720,15.27661051,.00029646,97.3858,243.7051,177.9939,182.1313,0,U,43784,999,41659,.31514407E-3,.8449E-4,0
ITASAT,2018-099AE,2026-07-08T22:55:33.599136,15.19331973,.0010734,97.4019,241.0343,275.6257,84.3754,0,U,43786,999,41621,.21505947E-3,.4481E-4,0
EAGLET-I,2018-099AJ,2026-07-08T22:38:38.069952,15.13104892,.0009426,97.4222,239.0362,269.4461,90.5690,0,U,43790,999,41562,.16014429E-3,.2773E-4,0
ESEO,2018-099AL,2026-07-08T15:58:56.601696,15.04305369,.00105706,97.3951,226.1340,258.9671,101.0367,0,U,43792,999,41503,.83966197E-4,.1112E-4,0
THEA,2018-099AQ,2026-07-08T15:27:18.252000,15.35777136,.00073962,97.4431,259.5543,196.7146,163.3855,0,U,43796,999,41598,.38046676E-3,.13178E-3,0
ASTROCAST 0.1,2018-099AS,2026-07-08T18:07:43.087584,15.51109059,.00056344,97.4369,268.9463,145.5224,214.6394,0,U,43798,999,41777,.53622922E-3,.3125E-3,0
JY1SAT (JO-97),2018-099AX,2026-07-08T16:29:49.927488,15.34370872,.00062391,97.4119,252.6045,178.6652,181.4609,0,U,43803,999,41692,.37201891E-3,.12315E-3,0
SUOMI-100,2018-099AY,2026-07-08T16:14:33.330624,15.28925903,.00098952,97.4176,249.9955,194.6945,165.4009,0,U,43804,999,41670,.31438642E-3,.8772E-4,0
CENTAURI-1,2018-099BD,2026-07-08T17:12:32.251680,15.16583047,.00125287,97.4210,240.9755,249.9678,110.0206,0,U,43809,999,41576,.16413427E-3,.3144E-4,0
GLOBAL-2,2018-099BG,2026-07-08T21:28:49.498176,15.08804460,.00076801,97.3552,225.5056,84.2045,276.0059,0,U,43812,999,41518,.12742415E-3,.1944E-4,0
SEAHAWK-1,2018-099BQ,2026-07-08T16:29:02.122368,15.23168577,.00073041,97.3949,241.8476,223.0542,137.0124,0,U,43820,999,41580,.27376045E-3,.6404E-4,0
SAUDISAT 5A,2018-102A,2026-07-08T23:16:31.845792,15.28278802,.00108989,97.3057,251.1323,63.2152,297.0202,0,U,43831,999,41900,.13748707E-3,.3719E-4,0
SAUDISAT 5B,2018-102C,2026-07-08T23:38:30.735744,15.28523640,.00116651,97.3166,254.2565,64.6779,295.5668,0,U,43833,999,41912,.12161771E-3,.3307E-4,0
ISAT,2018-111D,2026-07-08T19:19:35.462784,15.69714973,.00065245,97.5855,126.7570,150.1171,210.0464,0,U,43879,999,41455,.75346584E-3,.90132E-3,0
UWE-4,2018-111E,2026-07-08T18:10:50.099520,15.47518784,.00051084,97.5839,119.1632,221.6996,138.3865,0,U,43880,999,41411,.52100444E-3,.26748E-3,0
D-STAR ONE (SPARROW),2018-111F,2026-07-08T19:37:12.273024,15.82489471,.00069292,97.6084,132.8354,142.1755,218.0002,0,U,43881,999,41478,.95472435E-3,.202288E-2,0
JILIN-1 09,2019-005B,2026-07-08T23:04:37.023168,15.20706222,.00028608,97.4741,284.7410,50.0596,310.0890,0,U,43943,999,41245,.13634939E-3,.2928E-4,0
JILIN-1 10,2019-005E,2026-07-08T23:09:08.751168,15.25961280,.00079455,97.4789,288.7730,191.0109,169.0957,0,U,43946,999,41263,.15193191E-3,.383E-4,0
EGYPTSAT-A (MISRSAT-A),2019-008A,2026-07-08T23:00:33.624000,14.72332745,.00016686,98.0181,254.4276,96.3624,263.7773,0,U,44047,999,39644,.76535223E-4,.435E-5,0
EMISAT,2019-018A,2026-07-08T23:26:20.807808,14.43647060,.00190269,98.4634,248.6560,149.1162,211.1151,0,U,44078,999,38320,-.11043896E-4,-.82E-6,0
JILIN-1 GAOFEN 3A,2019-032C,2026-07-08T14:10:43.720320,15.33104625,.00046987,44.9745,239.0993,56.3811,303.7522,0,U,44312,999,39112,.22016114E-3,.6873E-4,0
WT 1B,2019-032G,2026-07-08T18:46:20.908416,15.27637302,.00090922,44.9728,303.0287,358.3132,1.7719,0,U,44316,999,39038,.320683E-3,.8548E-4,0
